start=new Date('2022-07-07T00:00:00.000Z').valueOf();
sats=[{"DECAY_DATE":null,"MEAN_MOTION_DDOT":"0.0000000000000","EPOCH":"2022-07-06T11:29:37.160448","OBJECT_TYPE":"PAYLOAD","CENTER_NAME":"EARTH","SEMIMAJOR_AXIS":"6925.395","RCS_SIZE":"LARGE","OBJECT_ID":"2021-036BJ","TLE_LINE2":"2 48332  53.0553   7.0305 0001425  72.3897 287.7248 15.06384892 65731","TIME_SYSTEM":"UTC","ARG_OF_PERICENTER":"72.3897","BSTAR":"0.00016710000000","MEAN_MOTION_DOT":"0.00002207","TLE_LINE1":"1 48332U 21036BJ  22187.47890232  .00002207  00000-0  16710-3 0  9996","PERIAPSIS":"546.273","GP_ID":"207537957","MEAN_MOTION":"15.06384892","RA_OF_ASC_NODE":"7.0305","REF_FRAME":"TEME","MEAN_ANOMALY":"287.7248","ECCENTRICITY":"0.00014250","COUNTRY_CODE":"US","REV_AT_EPOCH":"6573","MEAN_ELEMENT_THEORY":"SGP4","ELEMENT_SET_NO":"999","APOAPSIS":"548.247","NORAD_CAT_ID":"48332","PERIOD":"95.593","CLASSIFICATION_TYPE":"U","FILE":"3508782","OBJECT_NAME":"STARLINK-2511","LAUNCH_DATE":"2021-04-29","EPHEMERIS_TYPE":"0","SITE":"AFETR","INCLINATION":"53.0553"},{"DECAY_DATE":null,"EPOCH":"2022-07-06T12:55:53.289408","OBJECT_TYPE":"PAYLOAD","MEAN_MOTION_DDOT":"0.0000000000000","OBJECT_ID":"2021-036BK","TLE_LINE2":"2 48333  53.0556   6.7572 0001402  73.6639 286.4505 15.06389791 65746","TIME_SYSTEM":"UTC","ARG_OF_PERICENTER":"73.6639","CENTER_NAME":"EARTH","SEMIMAJOR_AXIS":"6925.380","RCS_SIZE":"LARGE","BSTAR":"0.00009908300000","MEAN_MOTION_DOT":"0.00001194","PERIAPSIS":"546.274","GP_ID":"207538207","TLE_LINE1":"1 48333U 21036BK  22187.53881122  .00001194  00000-0  99083-4 0  9991","MEAN_ANOMALY":"286.4505","ECCENTRICITY":"0.00014020","MEAN_MOTION":"15.06389791","RA_OF_ASC_NODE":"6.7572","REF_FRAME":"TEME","MEAN_ELEMENT_THEORY":"SGP4","REV_AT_EPOCH":"6574","APOAPSIS":"548.216","ELEMENT_SET_NO":"999","CLASSIFICATION_TYPE":"U","PERIOD":"95.593","NORAD_CAT_ID":"48333","FILE":"3508782","COUNTRY_CODE":"US","SITE":"AFETR","INCLINATION":"53.0556","OBJECT_NAME":"STARLINK-2518","LAUNCH_DATE":"2021-04-29","EPHEMERIS_TYPE":"0"},{"BSTAR":"0.00017327000000","MEAN_MOTION_DOT":"0.00002300","OBJECT_ID":"2021-036BL","TLE_LINE2":"2 48334  53.0553   6.7766 0001539  85.6410 274.4755 15.06392742 65744","TIME_SYSTEM":"UTC","ARG_OF_PERICENTER":"85.6410","CENTER_NAME":"EARTH","SEMIMAJOR_AXIS":"6925.371","RCS_SIZE":"LARGE","OBJECT_TYPE":"PAYLOAD","EPOCH":"2022-07-06T12:50:34.321344","MEAN_MOTION_DDOT":"0.0000000000000","DECAY_DATE":null,"SITE":"AFETR","INCLINATION":"53.0553","OBJECT_NAME":"STARLINK-2470","LAUNCH_DATE":"2021-04-29","EPHEMERIS_TYPE":"0","REV_AT_EPOCH":"6574","MEAN_ELEMENT_THEORY":"SGP4","APOAPSIS":"548.302","ELEMENT_SET_NO":"999","PERIOD":"95.593","NORAD_CAT_ID":"48334","CLASSIFICATION_TYPE":"U","FILE":"3508782","COUNTRY_CODE":"US","ECCENTRICITY":"0.00015390","MEAN_ANOMALY":"274.4755","RA_OF_ASC_NODE":"6.7766","MEAN_MOTION":"15.06392742","REF_FRAME":"TEME","PERIAPSIS":"546.170","GP_ID":"207539457","TLE_LINE1":"1 48334U 21036BL  22187.53511946  .00002300  00000-0  17327-3 0  9996"},{"TLE_LINE1":"1 48335U 21036BM  22187.53143401  .00000133  00000-0  27806-4 0  9990","PERIAPSIS":"546.323","GP_ID":"207539708","MEAN_MOTION":"15.06389890","RA_OF_ASC_NODE":"6.8163","REF_FRAME":"TEME","MEAN_ANOMALY":"272.6223","ECCENTRICITY":"0.00013300","COUNTRY_CODE":"US","ELEMENT_SET_NO":"999","APOAPSIS":"548.166","REV_AT_EPOCH":"6574","MEAN_ELEMENT_THEORY":"SGP4","FILE":"3508782","PERIOD":"95.593","CLASSIFICATION_TYPE":"U","NORAD_CAT_ID":"48335","LAUNCH_DATE":"2021-04-29","OBJECT_NAME":"STARLINK-2441","EPHEMERIS_TYPE":"0","SITE":"AFETR","INCLINATION":"53.0547","DECAY_DATE":null,"MEAN_MOTION_DDOT":"0.0000000000000","EPOCH":"2022-07-06T12:45:15.898464","OBJECT_TYPE":"PAYLOAD","CENTER_NAME":"EARTH","RCS_SIZE":"LARGE","SEMIMAJOR_AXIS":"6925.380","TLE_LINE2":"2 48335  53.0547   6.8163 0001330  87.4919 272.6223 15.06389890 65743","OBJECT_ID":"2021-036BM","ARG_OF_PERICENTER":"87.4919","TIME_SYSTEM":"UTC","MEAN_MOTION_DOT":"0.00000133","BSTAR":"0.00002780600000"},{"FILE":"3508782","NORAD_CAT_ID":"48353","PERIOD":"95.592","CLASSIFICATION_TYPE":"U","ELEMENT_SET_NO":"999","APOAPSIS":"548.265","REV_AT_EPOCH":"6473","MEAN_ELEMENT_THEORY":"SGP4","COUNTRY_CODE":"US","INCLINATION":"53.0533","SITE":"AFETR","EPHEMERIS_TYPE":"0","LAUNCH_DATE":"2021-05-04","OBJECT_NAME":"STARLINK-2613","GP_ID":"207538209","PERIAPSIS":"546.189","TLE_LINE1":"1 48353U 21038A   22187.53696808  .00004573  00000-0  32574-3 0  9995","MEAN_ANOMALY":"305.6345","ECCENTRICITY":"0.00014990","REF_FRAME":"TEME","MEAN_MOTION":"15.06395565","RA_OF_ASC_NODE":"266.7895","ARG_OF_PERICENTER":"54.4784","TIME_SYSTEM":"UTC","TLE_LINE2":"2 48353  53.0533 266.7895 0001499  54.4784 305.6345 15.06395565 64733","OBJECT_ID":"2021-038A","SEMIMAJOR_AXIS":"6925.362","RCS_SIZE":"LARGE","CENTER_NAME":"EARTH","BSTAR":"0.00032574000000","MEAN_MOTION_DOT":"0.00004573","DECAY_DATE":null,"EPOCH":"2022-07-06T12:53:14.042112","OBJECT_TYPE":"PAYLOAD","MEAN_MOTION_DDOT":"0.0000000000000"},{"MEAN_MOTION":"15.06405462","RA_OF_ASC_NODE":"266.8097","REF_FRAME":"TEME","ECCENTRICITY":"0.00013190","MEAN_ANOMALY":"271.1304","TLE_LINE1":"1 48354U 21038B   22187.53328328  .00002750  00000-0  20342-3 0  9990","PERIAPSIS":"546.283","GP_ID":"207539459","OBJECT_NAME":"STARLINK-2674","LAUNCH_DATE":"2021-05-04","EPHEMERIS_TYPE":"0","SITE":"AFETR","INCLINATION":"53.0530","COUNTRY_CODE":"US","MEAN_ELEMENT_THEORY":"SGP4","REV_AT_EPOCH":"6473","APOAPSIS":"548.110","ELEMENT_SET_NO":"999","PERIOD":"95.592","NORAD_CAT_ID":"48354","CLASSIFICATION_TYPE":"U","FILE":"3508782","MEAN_MOTION_DDOT":"0.0000000000000","EPOCH":"2022-07-06T12:47:55.675392","OBJECT_TYPE":"PAYLOAD","DECAY_DATE":null,"MEAN_MOTION_DOT":"0.00002750","BSTAR":"0.00020342000000","CENTER_NAME":"EARTH","RCS_SIZE":"LARGE","SEMIMAJOR_AXIS":"6925.332","OBJECT_ID":"2021-038B","TLE_LINE2":"2 48354  53.0530 266.8097 0001319  88.9836 271.1304 15.06405462 64737","ARG_OF_PERICENTER":"88.9836","TIME_SYSTEM":"UTC"},{"MEAN_ANOMALY":"286.5954","ECCENTRICITY":"0.00012320","REF_FRAME":"TEME","MEAN_MOTION":"15.06383864","RA_OF_ASC_NODE":"266.8146","GP_ID":"207539710","PERIAPSIS":"546.410","TLE_LINE1":"1 48355U 21038C   22187.52960094  .00002310  00000-0  17399-3 0  9992","INCLINATION":"53.0550","SITE":"AFETR","EPHEMERIS_TYPE":"0","OBJECT_NAME":"STARLINK-2635","LAUNCH_DATE":"2021-05-04","CLASSIFICATION_TYPE":"U","PERIOD":"95.593","NORAD_CAT_ID":"48355","FILE":"3508782","MEAN_ELEMENT_THEORY":"SGP4","REV_AT_EPOCH":"6473","APOAPSIS":"548.116","ELEMENT_SET_NO":"999","COUNTRY_CODE":"US","OBJECT_TYPE":"PAYLOAD","EPOCH":"2022-07-06T12:42:37.521216","MEAN_MOTION_DDOT":"0.0000000000000","DECAY_DATE":null,"MEAN_MOTION_DOT":"0.00002310","BSTAR":"0.00017399000000","TIME_SYSTEM":"UTC","ARG_OF_PERICENTER":"73.5170","OBJECT_ID":"2021-038C","TLE_LINE2":"2 48355  53.0550 266.8146 0001232  73.5170 286.5954 15.06383864 64732","RCS_SIZE":"LARGE","SEMIMAJOR_AXIS":"6925.398","CENTER_NAME":"EARTH"},{"EPHEMERIS_TYPE":"0","OBJECT_NAME":"STARLINK-2637","LAUNCH_DATE":"2021-05-04","INCLINATION":"53.0523","SITE":"AFETR","COUNTRY_CODE":"US","NORAD_CAT_ID":"48356","PERIOD":"95.592","CLASSIFICATION_TYPE":"U","FILE":"3508782","REV_AT_EPOCH":"6473","MEAN_ELEMENT_THEORY":"SGP4","ELEMENT_SET_NO":"999","APOAPSIS":"548.303","REF_FRAME":"TEME","RA_OF_ASC_NODE":"266.8260","MEAN_MOTION":"15.06398910","MEAN_ANOMALY":"297.9173","ECCENTRICITY":"0.00015690","TLE_LINE1":"1 48356U 21038D   22187.52590841  .00005419  00000-0  38241-3 0  9994","GP_ID":"207538459","PERIAPSIS":"546.130","BSTAR":"0.00038241000000","MEAN_MOTION_DOT":"0.00005419","SEMIMAJOR_AXIS":"6925.352","RCS_SIZE":"LARGE","CENTER_NAME":"EARTH","TIME_SYSTEM":"UTC","ARG_OF_PERICENTER":"62.1975","OBJECT_ID":"2021-038D","TLE_LINE2":"2 48356  53.0523 266.8260 0001569  62.1975 297.9173 15.06398910 64737","MEAN_MOTION_DDOT":"0.0000000000000","OBJECT_TYPE":"PAYLOAD","EPOCH":"2022-07-06T12:37:18.486624","DECAY_DATE":null},{"REV_AT_EPOCH":"6473","MEAN_ELEMENT_THEORY":"SGP4","ELEMENT_SET_NO":"999","APOAPSIS":"548.163","CLASSIFICATION_TYPE":"U","PERIOD":"95.593","NORAD_CAT_ID":"48357","FILE":"3508782","COUNTRY_CODE":"US","SITE":"AFETR","INCLINATION":"53.0545","OBJECT_NAME":"STARLINK-2636","LAUNCH_DATE":"2021-05-04","EPHEMERIS_TYPE":"0","PERIAPSIS":"546.325","GP_ID":"207538709","TLE_LINE1":"1 48357U 21038E   22187.52496765  .00005044  00000-0  35737-3 0  9996","MEAN_ANOMALY":"292.5263","ECCENTRICITY":"0.00013270","MEAN_MOTION":"15.06390222","RA_OF_ASC_NODE":"266.8687","REF_FRAME":"TEME","OBJECT_ID":"2021-038E","TLE_LINE2":"2 48357  53.0545 266.8687 0001327  67.5866 292.5263 15.06390222 64734","TIME_SYSTEM":"UTC","ARG_OF_PERICENTER":"67.5866","CENTER_NAME":"EARTH","SEMIMAJOR_AXIS":"6925.379","RCS_SIZE":"LARGE","BSTAR":"0.00035737000000","MEAN_MOTION_DOT":"0.00005044","DECAY_DATE":null,"EPOCH":"2022-07-06T12:35:57.204960","OBJECT_TYPE":"PAYLOAD","MEAN_MOTION_DDOT":"0.0000000000000"},{"MEAN_MOTION_DDOT":"0.0000000000000","OBJECT_TYPE":"PAYLOAD","EPOCH":"2022-07-06T12:26:41.979552","DECAY_DATE":null,"BSTAR":"0.00005129400000","MEAN_MOTION_DOT":"0.00000482","SEMIMAJOR_AXIS":"6925.413","RCS_SIZE":"LARGE","CENTER_NAME":"EARTH","TIME_SYSTEM":"UTC","ARG_OF_PERICENTER":"50.7509","OBJECT_ID":"2021-038F","TLE_LINE2":"2 48358  53.0556 266.8550 0001662  50.7509 309.3628 15.06379080 64726","REF_FRAME":"TEME","RA_OF_ASC_NODE":"266.8550","MEAN_MOTION":"15.06379080","ECCENTRICITY":"0.00016620","MEAN_ANOMALY":"309.3628","TLE_LINE1":"1 48358U 21038F   22187.51854143  .00000482  00000-0  51294-4 0  9992","GP_ID":"207538961","PERIAPSIS":"546.127","EPHEMERIS_TYPE":"0","OBJECT_NAME":"STARLINK-2624","LAUNCH_DATE":"2021-05-04","INCLINATION":"53.0556","SITE":"AFETR","COUNTRY_CODE":"US","PERIOD":"95.593","NORAD_CAT_ID":"48358","CLASSIFICATION_TYPE":"U","FILE":"3508782","REV_AT_EPOCH":"6472","MEAN_ELEMENT_THEORY":"SGP4","ELEMENT_SET_NO":"999","APOAPSIS":"548.429"}];
